COSMOS 2419 (714)       
1 28915U 05050A   17020.07210134 -.00000046  00000-0  00000+0 0  9993
2 28915  65.4235  70.8460 0015128 347.7617 221.2620  2.13109032 86177
COSMOS 2425 (716)       
1 29670U 06062A   17020.55506373 -.00000063  00000-0  10000-3 0  9996
2 29670  65.5345 309.8403 0022760 342.7830 291.4693  2.13104947 78386
COSMOS 2426 (717)       
1 29671U 06062B   17021.16902237 -.00000063  00000-0  10000-3 0  9994
2 29671  65.5504 309.9056 0015747 169.2846  75.3466  2.13103048 78406
COSMOS 2424 (715)       
1 29672U 06062C   17021.04389868 -.00000063  00000-0  10000-3 0  9991
2 29672  65.5349 309.8340 0015216 168.3419 156.0272  2.13102031 78397
COSMOS 2433 (720)       
1 32275U 07052A   17021.34556813 -.00000036  00000-0  10000-3 0  9993
2 32275  65.4389  70.5783 0004159 261.8310  91.0577  2.13104902 71915
COSMOS 2432 (719)       
1 32276U 07052B   17021.12256516 -.00000038  00000-0  10000-3 0  9999
2 32276  65.4515  70.6557 0011791 328.9909 166.0491  2.13104040 71917
COSMOS 2434 (721)       
1 32393U 07065A   17021.36861691 -.00000063  00000-0  00000+0 0  9998
2 32393  65.1501 309.0314 0002229  96.4373 164.5775  2.13102795 70627
COSMOS 2436 (723)       
1 32395U 07065C   17020.73860144 -.00000064  00000-0  10000-3 0  9998
2 32395  65.1604 309.0967 0016152 354.7637 190.8718  2.13104218 70542
COSMOS 2443 (725)       
1 33379U 08046B   17020.65418593 -.00000042  00000-0  00000-0 0  9991
2 33379  65.3680  69.9967 0016334 188.0740 256.6985  2.13102063 64768
COSMOS 2456 (730)       
1 36111U 09070A   17021.33239042  .00000090  00000-0  00000+0 0  9993
2 36111  64.1804 188.5980 0003340 350.5700  53.2041  2.13102858 55292
COSMOS 2457 (733)       
1 36112U 09070B   17021.12274383  .00000090  00000-0  00000+0 0  9998
2 36112  64.1620 188.5273 0007265 147.5657 224.6252  2.13101571 55298
COSMOS 2458 (734)       
1 36113U 09070C   17021.31095006  .00000090  00000-0  10000-3 0  9998
2 36113  64.1675 188.5290 0003134  60.3277 143.9773  2.13101956 55297
COSMOS 2459 (731)       
1 36400U 10007A   17020.78765720 -.00000041  00000-0  10000-3 0  9993
2 36400  65.3479  69.7197 0027529 349.6342 158.6039  2.13102244 53632
COSMOS 2461 (735)       
1 36401U 10007B   17021.38506800 -.00000036  00000-0  10000-3 0  9997
2 36401  65.3406  69.6801 0004900  67.4785  89.6602  2.13102139 53641
COSMOS 2460 (732)       
1 36402U 10007C   17020.76438091 -.00000041  00000-0  10000-3 0  9991
2 36402  65.3316  69.6752 0001421 260.0580 182.4535  2.13101826 53634
COSMOS 2465 (737)       
1 37138U 10041B   17020.74137572 -.00000064  00000-0  00000+0 0  9994
2 37138  64.7490 309.1156 0034064 173.6123   9.7833  2.13104365 49704
COSMOS 2464 (736)       
1 37139U 10041C   17021.33940816 -.00000063  00000-0  00000+0 0  9993
2 37139  64.7553 309.0924 0023912   8.3393  97.9911  2.13102574 49728
COSMOS 2471 (701K)      
1 37372U 11009A   17021.12501978 -.00000038  00000-0  00000+0 0  9998
2 37372  65.3285  69.6134 0008939 237.2934 255.2162  2.13102798 45916
COSMOS 2474 (742)       
1 37829U 11055A   17021.29410128  .00000091  00000-0  00000+0 0  9998
2 37829  64.5044 189.1031 0005858 243.4349 351.3967  2.13101879 41283
COSMOS 2476 (744)       
1 37867U 11064A   17021.20320373  .00000092  00000-0  00000+0 0  9994
2 37867  64.4845 189.1816 0015009 241.2091 329.7832  2.13101944 40634
COSMOS 2477 (745)       
1 37868U 11064B   17020.95025458  .00000092  00000-0  00000+0 0  9992
2 37868  64.4930 189.2330 0012952 242.3063 313.8540  2.13101820 40584
COSMOS 2475 (743)       
1 37869U 11064C   17021.08605456  .00000092  00000-0  00000+0 0  9990
2 37869  64.5003 189.2185 0017783 274.0697 342.5950  2.13102000 40593
COSMOS 2485 (747)       
1 39155U 13019A   17021.15339196  .00000092  00000-0  00000+0 0  9995
2 39155  64.6554 189.1811 0015520 235.2120 342.6510  2.13101973 29102
COSMOS 2492 (754)       
1 39620U 14012A   17020.53586188 -.00000043  00000-0  10000-3 0  9994
2 39620  65.2204  69.6397 0015465 326.0526 171.8579  2.13103455 22046
COSMOS 2500 (755)       
1 40001U 14032A   17020.95007622 -.00000040  00000-0  00000+0 0  9990
2 40001  65.1612  69.6341 0006990 216.7005 102.3137  2.13102790 20264
COSMOS 2501 (702K)      
1 40315U 14075A   17020.62789512 -.00000065  00000-0  00000+0 0  9991
2 40315  64.4832 310.5117 0014653 214.9432  24.8327  2.13100488 16666
COSMOS 2514 (751)       
1 41330U 16008A   17021.15863841 -.00000039  00000-0  00000+0 0  9995
2 41330  64.9614  69.8086 0010386 221.5039  77.1229  2.13103374  7436
COSMOS 2516 (753)       
1 41554U 16032A   17020.73955115 -.00000065  00000-0  00000-0 0  9999
2 41554  64.7017 310.2302 0011840 232.0317 358.5192  2.13101615  5030
